CCSDS_OMM_VERS = 2.0
CREATION_DATE  = 
ORIGINATOR     = 

OBJECT_NAME    = STARLINK-35355
OBJECT_ID      = 2025-259AC
CENTER_NAME    = EARTH
REF_FRAME      = TEME
TIME_SYSTEM    = UTC
MEAN_ELEMENT_THEORY = SGP/SGP4

EPOCH          = 2025-12-08T07:18:30.998880
MEAN_MOTION    = 15.50607242
ECCENTRICITY   = .00014481
INCLINATION    = 43.0019
RA_OF_ASC_NODE = 73.1614
ARG_OF_PERICENTER = 266.4850
MEAN_ANOMALY   = 93.5844

EPHEMERIS_TYPE = 0
CLASSIFICATION_TYPE = U
NORAD_CAT_ID   = 66448
ELEMENT_SET_NO = 999
REV_AT_EPOCH   = 548
BSTAR          = .22496261E-2
MEAN_MOTION_DOT = .134051E-2
MEAN_MOTION_DDOT = 0

CCSDS_OMM_VERS = 2.0
CREATION_DATE  = 
ORIGINATOR     = 

OBJECT_NAME    = STARLINK-34720
OBJECT_ID      = 2025-259AD
CENTER_NAME    = EARTH
REF_FRAME      = TEME
TIME_SYSTEM    = UTC
MEAN_ELEMENT_THEORY = SGP/SGP4

EPOCH          = 2025-12-08T07:18:01.291968
MEAN_MOTION    = 15.50596490
ECCENTRICITY   = .00014124
INCLINATION    = 42.9999
RA_OF_ASC_NODE = 73.1599
ARG_OF_PERICENTER = 275.5732
MEAN_ANOMALY   = 84.4968

EPHEMERIS_TYPE = 0
CLASSIFICATION_TYPE = U
NORAD_CAT_ID   = 66449
ELEMENT_SET_NO = 999
REV_AT_EPOCH   = 537
BSTAR          = .13385805E-2
MEAN_MOTION_DOT = .79032E-3
MEAN_MOTION_DDOT = 0

CCSDS_OMM_VERS = 2.0
CREATION_DATE  = 
ORIGINATOR     = 

OBJECT_NAME    = STARLINK-35334
OBJECT_ID      = 2025-259AE
CENTER_NAME    = EARTH
REF_FRAME      = TEME
TIME_SYSTEM    = UTC
MEAN_ELEMENT_THEORY = SGP/SGP4

EPOCH          = 2025-12-06T15:05:49.303968
MEAN_MOTION    = 15.50640512
ECCENTRICITY   = .00016631
INCLINATION    = 43.0010
RA_OF_ASC_NODE = 82.9491
ARG_OF_PERICENTER = 265.9718
MEAN_ANOMALY   = 94.0952

EPHEMERIS_TYPE = 0
CLASSIFICATION_TYPE = U
NORAD_CAT_ID   = 66450
ELEMENT_SET_NO = 999
REV_AT_EPOCH   = 522
BSTAR          = .21499199E-2
MEAN_MOTION_DOT = .12815E-2
MEAN_MOTION_DDOT = 0

CCSDS_OMM_VERS = 2.0
CREATION_DATE  = 
ORIGINATOR     = 

OBJECT_NAME    = VIASAT-3 F2
OBJECT_ID      = 2025-261A
CENTER_NAME    = EARTH
REF_FRAME      = TEME
TIME_SYSTEM    = UTC
MEAN_ELEMENT_THEORY = SGP/SGP4

EPOCH          = 2025-12-04T21:51:56.064384
MEAN_MOTION    = 2.28030055
ECCENTRICITY   = .23396731
INCLINATION    = 5.5696
RA_OF_ASC_NODE = 293.0418
ARG_OF_PERICENTER = 184.3884
MEAN_ANOMALY   = 199.1368

EPHEMERIS_TYPE = 0
CLASSIFICATION_TYPE = U
NORAD_CAT_ID   = 66454
ELEMENT_SET_NO = 999
REV_AT_EPOCH   = 47
BSTAR          = 0
MEAN_MOTION_DOT = -.61E-6
MEAN_MOTION_DDOT = 0

CCSDS_OMM_VERS = 2.0
CREATION_DATE  = 
ORIGINATOR     = 

OBJECT_NAME    = ATLAS 5 CENTAUR R/B
OBJECT_ID      = 2025-261B
CENTER_NAME    = EARTH
REF_FRAME      = TEME
TIME_SYSTEM    = UTC
MEAN_ELEMENT_THEORY = SGP/SGP4

EPOCH          = 2025-12-07T23:19:46.464384
MEAN_MOTION    = 2.28259438
ECCENTRICITY   = .23295288
INCLINATION    = 6.1518
RA_OF_ASC_NODE = 292.0933
ARG_OF_PERICENTER = 185.5256
MEAN_ANOMALY   = 186.9756

EPHEMERIS_TYPE = 0
CLASSIFICATION_TYPE = U
NORAD_CAT_ID   = 66455
ELEMENT_SET_NO = 999
REV_AT_EPOCH   = 54
BSTAR          = 0
MEAN_MOTION_DOT = -.77E-6
MEAN_MOTION_DDOT = 0

CCSDS_OMM_VERS = 2.0
CREATION_DATE  = 
ORIGINATOR     = 

OBJECT_NAME    = STARLINK-35643
OBJECT_ID      = 2025-262A
CENTER_NAME    = EARTH
REF_FRAME      = TEME
TIME_SYSTEM    = UTC
MEAN_ELEMENT_THEORY = SGP/SGP4

EPOCH          = 2025-12-08T06:00:02.999808
MEAN_MOTION    = 15.40623415
ECCENTRICITY   = .00012669
INCLINATION    = 43.0007
RA_OF_ASC_NODE = 97.4787
ARG_OF_PERICENTER = 262.6429
MEAN_ANOMALY   = 156.7885

EPHEMERIS_TYPE = 0
CLASSIFICATION_TYPE = U
NORAD_CAT_ID   = 66456
ELEMENT_SET_NO = 999
REV_AT_EPOCH   = 491
BSTAR          = .20301135E-2
MEAN_MOTION_DOT = .85234E-3
MEAN_MOTION_DDOT = 0

CCSDS_OMM_VERS = 2.0
CREATION_DATE  = 
ORIGINATOR     = 

OBJECT_NAME    = STARLINK-35466
OBJECT_ID      = 2025-262B
CENTER_NAME    = EARTH
REF_FRAME      = TEME
TIME_SYSTEM    = UTC
MEAN_ELEMENT_THEORY = SGP/SGP4

EPOCH          = 2025-12-08T06:00:02.999808
MEAN_MOTION    = 15.43422032
ECCENTRICITY   = .00014524
INCLINATION    = 43.0007
RA_OF_ASC_NODE = 97.4258
ARG_OF_PERICENTER = 273.1133
MEAN_ANOMALY   = 167.9401

EPHEMERIS_TYPE = 0
CLASSIFICATION_TYPE = U
NORAD_CAT_ID   = 66457
ELEMENT_SET_NO = 999
REV_AT_EPOCH   = 491
BSTAR          = -.41114469E-1
MEAN_MOTION_DOT = -.1679451E-1
MEAN_MOTION_DDOT = 0

CCSDS_OMM_VERS = 2.0
CREATION_DATE  = 
ORIGINATOR     = 

OBJECT_NAME    = STARLINK-35684
OBJECT_ID      = 2025-262C
CENTER_NAME    = EARTH
REF_FRAME      = TEME
TIME_SYSTEM    = UTC
MEAN_ELEMENT_THEORY = SGP/SGP4

EPOCH          = 2025-12-08T06:00:02.999808
MEAN_MOTION    = 15.42148028
ECCENTRICITY   = .00014964
INCLINATION    = 43.0006
RA_OF_ASC_NODE = 97.4499
ARG_OF_PERICENTER = 261.9437
MEAN_ANOMALY   = 168.9858

EPHEMERIS_TYPE = 0
CLASSIFICATION_TYPE = U
NORAD_CAT_ID   = 66458
ELEMENT_SET_NO = 999
REV_AT_EPOCH   = 491
BSTAR          = -.47185875E-1
MEAN_MOTION_DOT = -.1858879E-1
MEAN_MOTION_DDOT = 0

CCSDS_OMM_VERS = 2.0
CREATION_DATE  = 
ORIGINATOR     = 

OBJECT_NAME    = STARLINK-35449
OBJECT_ID      = 2025-262D
CENTER_NAME    = EARTH
REF_FRAME      = TEME
TIME_SYSTEM    = UTC
MEAN_ELEMENT_THEORY = SGP/SGP4

EPOCH          = 2025-12-08T06:00:02.999808
MEAN_MOTION    = 15.44865919
ECCENTRICITY   = .0001412
INCLINATION    = 43.0009
RA_OF_ASC_NODE = 97.4042
ARG_OF_PERICENTER = 275.2641
MEAN_ANOMALY   = 174.4735

EPHEMERIS_TYPE = 0
CLASSIFICATION_TYPE = U
NORAD_CAT_ID   = 66459
ELEMENT_SET_NO = 999
REV_AT_EPOCH   = 491
BSTAR          = -.47565906E-1
MEAN_MOTION_DOT = -.203441E-1
MEAN_MOTION_DDOT = 0

CCSDS_OMM_VERS = 2.0
CREATION_DATE  = 
ORIGINATOR     = 

OBJECT_NAME    = STARLINK-35424
OBJECT_ID      = 2025-262E
CENTER_NAME    = EARTH
REF_FRAME      = TEME
TIME_SYSTEM    = UTC
MEAN_ELEMENT_THEORY = SGP/SGP4

EPOCH          = 2025-12-08T06:00:02.999808
MEAN_MOTION    = 15.46189050
ECCENTRICITY   = .00014254
INCLINATION    = 42.9999
RA_OF_ASC_NODE = 97.3868
ARG_OF_PERICENTER = 274.0287
MEAN_ANOMALY   = 182.9886

EPHEMERIS_TYPE = 0
CLASSIFICATION_TYPE = U
NORAD_CAT_ID   = 66460
ELEMENT_SET_NO = 999
REV_AT_EPOCH   = 491
BSTAR          = -.4491724E-1
MEAN_MOTION_DOT = -.2013787E-1
MEAN_MOTION_DDOT = 0

CCSDS_OMM_VERS = 2.0
CREATION_DATE  = 
ORIGINATOR     = 

OBJECT_NAME    = STARLINK-35132
OBJECT_ID      = 2025-262F
CENTER_NAME    = EARTH
REF_FRAME      = TEME
TIME_SYSTEM    = UTC
MEAN_ELEMENT_THEORY = SGP/SGP4

EPOCH          = 2025-12-08T06:00:02.999808
MEAN_MOTION    = 15.47531721
ECCENTRICITY   = .0001425
INCLINATION    = 43.0005
RA_OF_ASC_NODE = 97.3721
ARG_OF_PERICENTER = 273.8264
MEAN_ANOMALY   = 189.0551

EPHEMERIS_TYPE = 0
CLASSIFICATION_TYPE = U
NORAD_CAT_ID   = 66461
ELEMENT_SET_NO = 999
REV_AT_EPOCH   = 491
BSTAR          = -.43483219E-1
MEAN_MOTION_DOT = -.2040025E-1
MEAN_MOTION_DDOT = 0

CCSDS_OMM_VERS = 2.0
CREATION_DATE  = 
ORIGINATOR     = 

OBJECT_NAME    = STARLINK-35499
OBJECT_ID      = 2025-262G
CENTER_NAME    = EARTH
REF_FRAME      = TEME
TIME_SYSTEM    = UTC
MEAN_ELEMENT_THEORY = SGP/SGP4

EPOCH          = 2025-12-08T06:00:02.999808
MEAN_MOTION    = 15.48874246
ECCENTRICITY   = .00010742
INCLINATION    = 43.0006
RA_OF_ASC_NODE = 97.3594
ARG_OF_PERICENTER = 267.2269
MEAN_ANOMALY   = 200.0923

EPHEMERIS_TYPE = 0
CLASSIFICATION_TYPE = U
NORAD_CAT_ID   = 66462
ELEMENT_SET_NO = 999
REV_AT_EPOCH   = 491
BSTAR          = -.41938996E-1
MEAN_MOTION_DOT = -.2060389E-1
MEAN_MOTION_DDOT = 0

