STARLINK-35355          
1 66448U 25259AC  25342.30452545  .00134051  00000+0  22496-2 0  9993
2 66448  43.0019  73.1614 0001448 266.4850  93.5844 15.50607242  5489
STARLINK-34720          
1 66449U 25259AD  25342.30418162  .00079032  00000+0  13386-2 0  9996
2 66449  42.9999  73.1599 0001412 275.5732  84.4968 15.50596490  5374
STARLINK-35334          
1 66450U 25259AE  25340.62904287  .00128150  00000+0  21499-2 0  9999
2 66450  43.0010  82.9491 0001663 265.9718  94.0952 15.50640512  5225
VIASAT-3 F2             
1 66454U 25261A   25338.91106556 -.00000061  00000+0  00000+0 0  9991
2 66454   5.5696 293.0418 2339673 184.3884 199.1368  2.28030055   477
ATLAS 5 CENTAUR R/B     
1 66455U 25261B   25341.97206556 -.00000077  00000+0  00000+0 0  9990
2 66455   6.1518 292.0933 2329528 185.5256 186.9756  2.28259438   544
STARLINK-35643          
1 66456U 25262A   25342.25003472  .00085234  00000+0  20301-2 0  9992
2 66456  43.0007  97.4787 0001266 262.6429 156.7885 15.40623415  4916
STARLINK-35466          
1 66457U 25262B   25342.25003472 -.01679451  00000+0 -41114-1 0  9990
2 66457  43.0007  97.4258 0001452 273.1133 167.9401 15.43422032  4919
STARLINK-35684          
1 66458U 25262C   25342.25003472 -.01858879  00000+0 -47186-1 0  9999
2 66458  43.0006  97.4499 0001496 261.9437 168.9858 15.42148028  4912
STARLINK-35449          
1 66459U 25262D   25342.25003472 -.02034410  00000+0 -47566-1 0  9990
2 66459  43.0009  97.4042 0001412 275.2641 174.4735 15.44865919  4916
STARLINK-35424          
1 66460U 25262E   25342.25003472 -.02013787  00000+0 -44917-1 0  9993
2 66460  42.9999  97.3868 0001425 274.0287 182.9886 15.46189050  4914
STARLINK-35132          
1 66461U 25262F   25342.25003472 -.02040025  00000+0 -43483-1 0  9996
2 66461  43.0005  97.3721 0001425 273.8264 189.0551 15.47531721  4919
STARLINK-35499          
1 66462U 25262G   25342.25003472 -.02060389  00000+0 -41939-1 0  9996
2 66462  43.0006  97.3594 0001074 267.2269 200.0923 15.48874246  4911
